FLOCK 4X-11             
1 51049U 22002BT  23312.18086474  .00035241  00000+0  98103-3 0  9992
2 51049  97.4179  21.0949 0006946  70.8877 289.3119 15.36709946100908
FLOCK 4X-40             
1 51052U 22002BW  23311.76102193  .00025534  00000+0  79020-3 0  9997
2 51052  97.4196  19.9904 0006589  96.8993 263.2999 15.33442256100797
FLOCK 4X-24             
1 51056U 22002CA  23312.15466691  .00032032  00000+0  99099-3 0  9990
2 51056  97.4196  20.4354 0006461  84.7492 275.4488 15.33405968100850
FLOCK 4X-4              
1 51064U 22002CJ  23311.65811409  .00026465  00000+0  81240-3 0  9996
2 51064  97.4220  20.0712 0007058  84.1374 276.0672 15.33689469100781
FLOCK 4X-7              
1 51065U 22002CK  23312.14445127  .00027921  00000+0  86284-3 0  9993
2 51065  97.4224  20.7278 0007176  90.4729 269.7336 15.33464987100855
FLOCK 4X-14             
1 51066U 22002CL  23312.17472673  .00037826  00000+0  11233-2 0  9999
2 51066  97.4248  21.1221 0007172  93.4177 266.7886 15.34663851100861
FLOCK 4Y-24             
1 55020U 23001M   23312.14631817  .00016845  00000+0  75179-3 0  9995
2 55020  97.4601  10.4143 0009111 224.6632 135.3870 15.21412335 46948
FLOCK 4Y-32             
1 55021U 23001N   23312.13026981  .00017206  00000+0  76393-3 0  9996
2 55021  97.4592  10.4206 0009254 221.5629 138.4904 15.21583246 46940
FLOCK 4Y-22             
1 55022U 23001P   23311.41648406  .00018545  00000+0  82786-3 0  9999
2 55022  97.4600   9.7140 0009682 217.0996 142.9571 15.21378904 46832
FLOCK 4Y-18             
1 55023U 23001Q   23311.60403245  .00016382  00000+0  72963-3 0  9994
2 55023  97.4629  10.0385 0009348 223.7422 136.3074 15.21487442 46863
FLOCK 4Y-14             
1 55024U 23001R   23311.74114148  .00014715  00000+0  65811-3 0  9993
2 55024  97.4618  10.1233 0009480 227.5511 132.4924 15.21366997 46887
FLOCK 4Y-30             
1 55025U 23001S   23311.59951566  .00015453  00000+0  68775-3 0  9992
2 55025  97.4636  10.0573 0009425 227.0047 133.0400 15.21523582 46861
FLOCK 4Y-19             
1 55026U 23001T   23312.13166884  .00016751  00000+0  74629-3 0  9992
2 55026  97.4591  10.4087 0009942 217.1164 142.9386 15.21466838 46941
FLOCK 4Y-25             
1 55027U 23001U   23312.12788315  .00015090  00000+0  67330-3 0  9997
2 55027  97.4585  10.3866 0009459 221.9194 138.1319 15.21441148 46948
FLOCK 4Y-5              
1 55028U 23001V   23311.39109293  .00022773  00000+0  10135-2 0  9994
2 55028  97.4605   9.7552 0010221 218.2445 141.8067 15.21435266 46836
FLOCK 4Y-10             
1 55029U 23001W   23311.72579889  .00016685  00000+0  74307-3 0  9991
2 55029  97.4623  10.1728 0009645 221.2612 138.7896 15.21482084 46886
FLOCK 4Y-29             
1 55030U 23001X   23311.59615950  .00014398  00000+0  64194-3 0  9990
2 55030  97.4587   9.8789 0009940 221.8599 138.1878 15.21474325 46868
FLOCK 4Y-17             
1 55031U 23001Y   23311.60224929  .00015021  00000+0  66933-3 0  9992
2 55031  97.4632  10.0576 0009680 224.6752 135.3705 15.21486221 46867
FLOCK 4Y-7              
1 55032U 23001Z   23311.44863746  .00021452  00000+0  95481-3 0  9996
2 55032  97.4595   9.8132 0010153 217.8726 142.1796 15.21444530 46843
FLOCK 4Y-28             
1 55033U 23001AA  23312.15175429  .00023831  00000+0  94145-3 0  9999
2 55033  97.4563  11.2014 0008074 214.2894 145.7823 15.25475665 47007
FLOCK 4Y-3              
1 55035U 23001AC  23311.70732846  .00015704  00000+0  69833-3 0  9999
2 55035  97.4596  10.0557 0012512 224.5429 135.4801 15.21519588 46880
FLOCK 4Y-1              
1 55039U 23001AG  23311.69870080  .00022428  00000+0  94802-3 0  9999
2 55039  97.4602  10.2183 0009702 213.6800 146.3821 15.23198864 46894
FLOCK 4Y-16             
1 55040U 23001AH  23311.44489683  .00021732  00000+0  96229-3 0  9991
2 55040  97.4639   9.9884 0009806 227.7095 132.3310 15.21622382 46844
FLOCK 4Y-33             
1 55042U 23001AK  23312.11000096  .00015138  00000+0  67514-3 0  9993
2 55042  97.4591  10.4034 0010270 218.2757 141.7751 15.21448510 46947
FLOCK 4Y-11             
1 55043U 23001AL  23311.73907773  .00014464  00000+0  65990-3 0  9996
2 55043  97.4634  10.0290 0010035 219.2950 140.7558 15.20681312 46875
FLOCK 4Y-4              
1 55055U 23001AY  23312.15873142  .00017867  00000+0  79033-3 0  9991
2 55055  97.4614  10.5967 0011668 221.1699 138.8657 15.21680644 46952
FLOCK 4Y-35             
1 55057U 23001BA  23312.10225845  .00017667  00000+0  78335-3 0  9991
2 55057  97.4622  10.5771 0010631 226.7260 133.3090 15.21612636 46946
FLOCK 4Y-20             
1 55063U 23001BG  23311.64681272  .00015482  00000+0  69231-3 0  9994
2 55063  97.4641  10.1826 0012540 228.7104 131.3053 15.21331631 46873
FLOCK 4Y-12             
1 55065U 23001BJ  23312.10694438  .00018242  00000+0  81268-3 0  9997
2 55065  97.4649  10.6728 0012183 226.2612 133.7616 15.21427371 46945
FLOCK 4Y-6              
1 55066U 23001BK  23312.16534314  .00018038  00000+0  79873-3 0  9992
2 55066  97.4643  10.6930 0011934 227.0570 132.9666 15.21639546 46956
FLOCK 4Y-15             
1 55068U 23001BM  23311.63069940  .00016055  00000+0  71400-3 0  9998
2 55068  97.4579   9.9740 0013023 223.4021 136.6191 15.21505118 46870
FLOCK 4Y-9              
1 55069U 23001BN  23311.70551076  .00015575  00000+0  69499-3 0  9994
2 55069  97.4626  10.1894 0012216 231.2962 128.7182 15.21406868 46887
FLOCK 4Y-26             
1 55070U 23001BP  23312.15155825  .00015749  00000+0  69951-3 0  9994
2 55070  97.4602  10.5316 0012832 219.7939 140.2357 15.21555223 46956
FLOCK 4Y-8              
1 55071U 23001BQ  23312.13140131  .00017399  00000+0  76247-3 0  9996
2 55071  97.4602  10.5894 0012943 225.4798 134.5381 15.21990177 46952
FLOCK 4Y-2              
1 55074U 23001BT  23311.64171253  .00015936  00000+0  71239-3 0  9994
2 55074  97.4631  10.1380 0012631 229.5074 130.5062 15.21333195 46873
FLOCK 4Y-31             
1 55075U 23001BU  23312.12342229  .00039464  00000+0  15384-2 0  9992
2 55075  97.4577  10.8582 0012190 219.1439 140.8918 15.25773133 46973
FLOCK 4Y-21             
1 55077U 23001BW  23311.43752281  .00022059  00000+0  98088-3 0  9995
2 55077  97.4639   9.9775 0012722 228.8697 131.1442 15.21445303 46843
FLOCK 4Y-36             
1 55078U 23001BX  23312.14155433  .00017360  00000+0  76735-3 0  9995
2 55078  97.4609  10.6087 0012645 226.5322 133.4863 15.21700179 46959
FLOCK 4Y-13             
1 55079U 23001BY  23312.16716896  .00017538  00000+0  78209-3 0  9999
2 55079  97.4628  10.6483 0013076 224.8358 135.1822 15.21391993 46954
FLOCK 4Y-23             
1 55080U 23001BZ  23312.14496696  .00029331  00000+0  12896-2 0  9995
2 55080  97.4600  10.5695 0013146 222.5370 137.4849 15.21766009 46955
FLOCK 4Y-34             
1 55082U 23001CB  23311.74586554  .00014931  00000+0  66463-3 0  9995
2 55082  97.4606  10.2166 0013024 222.5214 137.5014 15.21489362 46897
FLOCK 4Y-27             
1 55083U 23001CC  23312.10205509  .00029133  00000+0  12737-2 0  9999
2 55083  97.4609  10.6550 0012659 225.8532 134.1664 15.21964970 46958
